ONEWEB-0037             
1 45440U 20020S   24032.99289283 -.00000192  00000+0 -57813-3 0  9992
2 45440  87.8983 193.2016 0001306 100.5412 259.5863 13.11413257189179
ONEWEB-0042             
1 45441U 20020T   24033.45864762 -.00000314  00000+0 -92209-3 0  9990
2 45441  87.8985 193.1333 0001559 101.4547 258.6756 13.11414349189200
ONEWEB-0098             
1 45442U 20020U   24033.45230110 -.00000130  00000+0 -40252-3 0  9992
2 45442  87.8984 193.1435 0001560  91.9311 268.1995 13.11414253189178
ONEWEB-0055             
1 45443U 20020V   24033.51642335  .00000389  00000+0  10627-2 0  9992
2 45443  87.8983 193.1348 0001604  93.3411 266.7900 13.11414534189168
ONEWEB-0093             
1 45444U 20020W   24033.48964560  .00000206  00000+0  54522-3 0  9997
2 45444  87.8987 193.1189 0001832  96.0189 264.1148 13.11417372189227
ONEWEB-0029             
1 45445U 20020X   24032.97504612  .00000495  00000+0  13605-2 0  9995
2 45445  87.8983 193.2343 0001662 106.0544 254.0767 13.11414086189139
ONEWEB-0068             
1 45446U 20020Y   24032.49210587  .00000171  00000+0  44787-3 0  9995
2 45446  87.8985 193.3150 0001724  99.4094 260.7229 13.11419540189006
ONEWEB-0046             
1 45447U 20020Z   24033.48151943 -.00000097  00000+0 -30922-3 0  9991
2 45447  87.8986 193.1314 0001446 112.0830 248.0452 13.11417124189158
